NORAD_CAT_ID,OBJECT_NAME,OBJECT_TYPE,EPOCH,MEAN_MOTION,ECCENTRICITY,INCLINATION,RA_OF_ASC_NODE,ARG_OF_PERICENTER,MEAN_ANOMALY,BSTAR,MEAN_MOTION_DOT,MEAN_MOTION_DDOT,TLE_LINE0,TLE_LINE1,TLE_LINE2,SEMIMAJOR_AXIS,PERIOD,APOGEE,PERIGEE,DECAYED
50818.0,STARLINK-3336,PAYLOAD,2024-02-25 21:06:03,15.08839073,0.000125,53.2167,263.7277,84.8166,275.2968,0.0001099,1.462e-05,0.0,0 STARLINK-3336,1 50818U 22001R   24056.87920487  .00001462  00000-0  10990-3 0  9994,2 50818  53.2167 263.7277 0001250  84.8166 275.2968 15.08839073118264,6917.883,95.438,540.613,538.883,0.0
50818.0,STARLINK-3336,PAYLOAD,2024-02-26 22:32:13,15.08841375,0.000127,53.2159,258.9696,81.5201,278.5935,0.00013734,1.899e-05,0.0,0 STARLINK-3336,1 50818U 22001R   24057.93904671  .00001899  00000-0  13734-3 0  9992,2 50818  53.2159 258.9696 0001270  81.5201 278.5935 15.08841375118428,6917.876,95.437,540.62,538.863,0.0
50818.0,STARLINK-3336,PAYLOAD,2024-02-27 12:50:42,15.08838609,0.0001228,53.2152,256.294,88.3442,271.769,9.2391e-05,1.183e-05,0.0,0 STARLINK-3336,1 50818U 22001R   24058.53520963  .00001183  00000-0  92391-4 0  9990,2 50818  53.2152 256.2940 0001228  88.3442 271.7690 15.08838609118518,6917.885,95.438,540.599,538.9,0.0
50818.0,STARLINK-3336,PAYLOAD,2024-02-27 20:47:37,15.08844012,0.0001214,53.2153,254.808,86.3947,273.7183,4.9721e-05,5.04e-06,0.0,0 STARLINK-3336,1 50818U 22001R   24058.86640729  .00000504  00000-0  49721-4 0  9994,2 50818  53.2153 254.8080 0001214  86.3947 273.7183 15.08844012118560,6917.868,95.437,540.573,538.893,0.0
50818.0,STARLINK-3336,PAYLOAD,2024-02-28 12:41:29,15.0884126,0.0001275,53.2153,251.8349,82.987,277.1268,1.7688e-05,-6e-08,0.0,0 STARLINK-3336,1 50818U 22001R   24059.52881029 -.00000006  00000-0  17688-4 0  9993,2 50818  53.2153 251.8349 0001275  82.9870 277.1268 15.08841260119946,6917.877,95.437,540.624,538.86,0.0
50818.0,STARLINK-3336,PAYLOAD,2024-02-28 19:03:01,15.08841091,0.0001312,53.2153,250.6442,90.5421,269.5721,3.3738e-05,2.49e-06,0.0,0 STARLINK-3336,1 50818U 22001R   24059.79376913  .00000249  00000-0  33738-4 0  9995,2 50818  53.2153 250.6442 0001312  90.5421 269.5721 15.08841091118700,6917.877,95.437,540.65,538.834,0.0
50818.0,STARLINK-3336,PAYLOAD,2024-02-29 12:32:16,15.08834569,0.0001305,53.2157,247.3727,93.0306,267.0835,0.00016455,2.332e-05,0.0,0 STARLINK-3336,1 50818U 22001R   24060.52240994  .00002332  00000-0  16455-3 0  9998,2 50818  53.2157 247.3727 0001305  93.0306 267.0835 15.08834569118818,6917.897,95.438,540.665,538.859,0.0
50818.0,STARLINK-3336,PAYLOAD,2024-02-29 18:53:48,15.0884348,0.000129,53.2159,246.1837,91.4301,268.6839,7.3438e-05,8.81e-06,0.0,0 STARLINK-3336,1 50818U 22001R   24060.78736622  .00000881  00000-0  73438-4 0  9996,2 50818  53.2159 246.1837 0001290  91.4301 268.6839 15.08843480120130,6917.87,95.437,540.627,538.842,0.0
50818.0,STARLINK-3336,PAYLOAD,2024-02-29 22:04:34,15.08847534,0.0001419,53.2159,245.5885,102.421,257.6941,6.7494e-05,7.87e-06,0.0,0 STARLINK-3336,1 50818U 22001R   24060.91984308  .00000787  00000-0  67494-4 0  9997,2 50818  53.2159 245.5885 0001419 102.4210 257.6941 15.08847534118875,6917.857,95.437,540.704,538.741,0.0
50818.0,STARLINK-3336,PAYLOAD,2024-03-01 18:44:35,15.08840443,0.000136,53.2163,241.7222,93.7247,266.39,7.0062e-05,8.27e-06,0.0,0 STARLINK-3336,1 50818U 22001R   24061.78096840  .00000827  00000-0  70062-4 0  9998,2 50818  53.2163 241.7222 0001360  93.7247 266.3900 15.08840443120282,6917.879,95.438,540.685,538.803,0.0
50818.0,STARLINK-3336,PAYLOAD,2024-03-02 18:35:22,15.08843452,0.0001311,53.2163,237.2628,90.0853,270.029,5.7372e-05,6.25e-06,0.0,0 STARLINK-3336,1 50818U 22001R   24062.77456686  .00000625  00000-0  57372-4 0  9991,2 50818  53.2163 237.2628 0001311  90.0853 270.0290 15.08843452119152,6917.87,95.437,540.642,538.828,0.0
50818.0,STARLINK-3336,PAYLOAD,2024-03-03 04:07:41,15.0884269,0.0001296,53.2163,235.4782,88.7892,271.3249,2.2515e-05,7e-07,0.0,0 STARLINK-3336,1 50818U 22001R   24063.17200756  .00000070  00000-0  22515-4 0  9996,2 50818  53.2163 235.4782 0001296  88.7892 271.3249 15.08842690120492,6917.872,95.437,540.634,538.841,0.0
50818.0,STARLINK-3336,PAYLOAD,2024-03-03 15:15:23,15.08835862,0.0001411,53.2171,233.3979,93.1098,267.0055,1.0733e-05,-1.17e-06,0.0,0 STARLINK-3336,1 50818U 22001R   24063.63569359 -.00000117  00000-0  10733-4 0  9996,2 50818  53.2171 233.3979 0001411  93.1098 267.0055 15.08835862119288,6917.893,95.438,540.734,538.782,0.0
50818.0,STARLINK-3336,PAYLOAD,2024-03-03 20:01:33,15.08839526,0.000142,53.2171,232.5068,97.092,263.0234,2.6614e-05,1.36e-06,0.0,0 STARLINK-3336,1 50818U 22001R   24063.83441102  .00000136  00000-0  26614-4 0  9998,2 50818  53.2171 232.5068 0001420  97.0920 263.0234 15.08839526119315,6917.882,95.438,540.729,538.764,0.0
50818.0,STARLINK-3336,PAYLOAD,2024-03-04 18:16:56,15.08850041,0.000137,53.217,228.3412,86.5775,273.5374,8.9973e-05,1.145e-05,0.0,0 STARLINK-3336,1 50818U 22001R   24064.76176204  .00001145  00000-0  89973-4 0  9997,2 50818  53.2170 228.3412 0001370  86.5775 273.5374 15.08850041120739,6917.85,95.437,540.662,538.767,0.0
50818.0,STARLINK-3336,PAYLOAD,2024-03-05 10:10:48,15.08831812,0.0001281,53.2166,225.3671,99.0541,261.0596,4.8047e-05,4.77e-06,0.0,0 STARLINK-3336,1 50818U 22001R   24065.42417538  .00000477  00000-0  48047-4 0  9993,2 50818  53.2166 225.3671 0001281  99.0541 261.0596 15.08831812119550,6917.905,95.438,540.657,538.884,0.0
50818.0,STARLINK-3336,PAYLOAD,2024-03-05 18:07:44,15.0883453,0.0001357,53.2155,223.8804,84.816,275.2987,-2.3123e-05,-6.56e-06,0.0,0 STARLINK-3336,1 50818U 22001R   24065.75537334 -.00000656  00000-0 -23123-4 0  9995,2 50818  53.2155 223.8804 0001357  84.8160 275.2987 15.08834530120881,6917.897,95.438,540.701,538.823,0.0
50818.0,STARLINK-3336,PAYLOAD,2024-03-06 10:01:36,15.08833021,0.0001323,53.2155,220.9072,85.5331,274.5812,-0.00013225,-2.392e-05,0.0,0 STARLINK-3336,1 50818U 22001R   24066.41777847 -.00002392  00000-0 -13225-3 0  9994,2 50818  53.2155 220.9072 0001323  85.5331 274.5812 15.08833021119709,6917.902,95.438,540.682,538.851,0.0
50818.0,STARLINK-3336,PAYLOAD,2024-03-07 03:30:49,15.088507,0.0001126,53.2166,217.6304,110.1502,249.9611,9.1743e-05,1.173e-05,0.0,0 STARLINK-3336,1 50818U 22001R   24067.14640487  .00001173  00000-0  91743-4 0  9990,2 50818  53.2166 217.6304 0001126 110.1502 249.9611 15.08850700121099,6917.848,95.437,540.492,538.934,0.0
50818.0,STARLINK-3336,PAYLOAD,2024-03-07 14:38:30,15.08864517,0.0001641,53.2166,215.5546,80.6966,279.4211,0.00035257,5.331e-05,0.0,0 STARLINK-3336,1 50818U 22001R   24067.61007136  .00005331  00000-0  35257-3 0  9997,2 50818  53.2166 215.5546 0001641  80.6966 279.4211 15.08864517119880,6917.805,95.436,540.806,538.535,0.0
50818.0,STARLINK-3336,PAYLOAD,2024-03-08 03:21:36,15.08849537,0.0001533,53.2171,213.1758,80.4486,279.668,0.00020083,2.91e-05,0.0,0 STARLINK-3336,1 50818U 22001R   24068.14000052  .00002910  00000-0  20083-3 0  9997,2 50818  53.2171 213.1758 0001533  80.4486 279.6680 15.08849537119966,6917.851,95.437,540.777,538.656,0.0
50818.0,STARLINK-3336,PAYLOAD,2024-03-08 19:15:29,15.08823875,0.0001127,53.2169,210.1993,122.0706,238.0396,-0.00010897,-2.021e-05,0.0,0 STARLINK-3336,1 50818U 22001R   24068.80242529 -.00002021  00000-0 -10897-3 0  9994,2 50818  53.2169 210.1993 0001127 122.0706 238.0396 15.08823875121343,6917.93,95.439,540.574,539.015,0.0
50818.0,STARLINK-3336,PAYLOAD,2024-03-09 09:33:59,15.08814367,0.0001309,53.2173,207.5223,92.5891,267.5251,-0.00029569,-4.987e-05,0.0,0 STARLINK-3336,1 50818U 22001R   24069.39860576 -.00004987  00000-0 -29569-3 0  9996,2 50818  53.2173 207.5223 0001309  92.5891 267.5251 15.08814367121435,6917.959,95.439,540.729,538.918,0.0
50818.0,STARLINK-3336,PAYLOAD,2024-03-10 01:27:48,15.08854312,0.0001589,53.2179,204.5501,89.1642,270.9532,-0.00010067,-1.891e-05,0.0,0 STARLINK-3336,1 50818U 22001R   24070.06097349 -.00001891  00000-0 -10067-3 0  9996,2 50818  53.2179 204.5501 0001589  89.1642 270.9532 15.08854312121538,6917.837,95.437,540.801,538.602,0.0
50818.0,STARLINK-3336,PAYLOAD,2024-03-10 12:35:30,15.08838742,0.0001026,53.213,202.4636,81.7296,278.3812,0.00036392,5.509e-05,0.0,0 STARLINK-3336,1 50818U 22001R   24070.52465384  .00005509  00000-0  36392-3 0  9992,2 50818  53.2130 202.4636 0001026  81.7296 278.3812 15.08838742121600,6917.884,95.438,540.459,539.039,0.0
50818.0,STARLINK-3336,PAYLOAD,2024-03-10 15:46:13,15.08881728,6.96e-05,53.2151,201.8728,78.2495,281.8575,0.00040618,6.19e-05,0.0,0 STARLINK-3336,1 50818U 22001R   24070.65710199  .00006190  00000-0  40618-3 0  9996,2 50818  53.2151 201.8728 0000696  78.2495 281.8575 15.08881728121621,6917.753,95.435,540.099,539.136,0.0
50818.0,STARLINK-3336,PAYLOAD,2024-03-11 01:18:34,15.08843253,0.0001126,53.2148,200.0892,89.0994,271.0127,0.00043534,6.648e-05,0.0,0 STARLINK-3336,1 50818U 22001R   24071.05456924  .00006648  00000-0  43534-3 0  9992,2 50818  53.2148 200.0892 0001126  89.0994 271.0127 15.08843253121684,6917.87,95.437,540.514,538.956,0.0
50818.0,STARLINK-3336,PAYLOAD,2024-03-11 12:26:18,15.08839592,9.26e-05,53.2152,198.0071,83.2517,276.858,-7.1164e-05,-1.42e-05,0.0,0 STARLINK-3336,1 50818U 22001R   24071.51826896 -.00001420  00000-0 -71164-4 0  9998,2 50818  53.2152 198.0071 0000926  83.2517 276.8580 15.08839592121753,6917.882,95.438,540.387,539.106,0.0
50818.0,STARLINK-3336,PAYLOAD,2024-03-13 13:43:15,15.08832939,0.0001456,53.2173,188.7912,99.1225,260.9932,9.8364e-05,1.278e-05,0.0,0 STARLINK-3336,1 50818U 22001R   24073.57170806  .00001278  00000-0  98364-4 0  9999,2 50818  53.2173 188.7912 0001456  99.1225 260.9932 15.08832939122065,6917.902,95.438,540.774,538.76,0.0
50818.0,STARLINK-3336,PAYLOAD,2024-03-14 11:58:38,15.08847237,0.0001905,53.2158,184.6273,100.1014,260.0193,0.00018796,2.705e-05,0.0,0 STARLINK-3336,1 50818U 22001R   24074.49905696  .00002705  00000-0  18796-3 0  9990,2 50818  53.2158 184.6273 0001905 100.1014 260.0193 15.08847237122204,6917.858,95.437,541.041,538.405,0.0
